[{"OBJECT_NAME":"STARLINK-6031","OBJECT_ID":"2023-078AV","EPOCH":"2026-03-09T23:18:26.902080","MEAN_MOTION":14.98332152,"ECCENTRICITY":0.00025154,"INCLINATION":70.0012,"RA_OF_ASC_NODE":343.6972,"ARG_OF_PERICENTER":270.1181,"MEAN_ANOMALY":89.969,"EPHEMERIS_TYPE":0,"CLASSIFICATION_TYPE":"U","NORAD_CAT_ID":56810,"ELEMENT_SET_NO":999,"REV_AT_EPOCH":15272,"BSTAR":2.14396e-6,"MEAN_MOTION_DOT":-6.7e-7,"MEAN_MOTION_DDOT":0},{"OBJECT_NAME":"CZ-6A DEB","OBJECT_ID":"2022-151CK","EPOCH":"2026-03-09T04:15:44.570880","MEAN_MOTION":14.7716303,"ECCENTRICITY":0.01031562,"INCLINATION":98.594,"RA_OF_ASC_NODE":152.6273,"ARG_OF_PERICENTER":122.5744,"MEAN_ANOMALY":238.5477,"EPHEMERIS_TYPE":0,"CLASSIFICATION_TYPE":"U","NORAD_CAT_ID":54340,"ELEMENT_SET_NO":999,"REV_AT_EPOCH":17671,"BSTAR":0.0019701996,"MEAN_MOTION_DOT":0.0001519,"MEAN_MOTION_DDOT":0}]
